[{"OBJECT_NAME":"OBJECT D","OBJECT_ID":"2024-085D","EPOCH":"2026-03-09T22:53:13.410816","MEAN_MOTION":15.33413141,"ECCENTRICITY":0.00152451,"INCLINATION":97.3312,"RA_OF_ASC_NODE":145.3953,"ARG_OF_PERICENTER":54.9672,"MEAN_ANOMALY":305.2998,"EPHEMERIS_TYPE":0,"CLASSIFICATION_TYPE":"U","NORAD_CAT_ID":59680,"ELEMENT_SET_NO":999,"REV_AT_EPOCH":10244,"BSTAR":0.00049264705,"MEAN_MOTION_DOT":0.00015903,"MEAN_MOTION_DDOT":0},{"OBJECT_NAME":"STARLINK-34704","OBJECT_ID":"2025-216N","EPOCH":"2026-03-09T21:36:08.839584","MEAN_MOTION":15.30187468,"ECCENTRICITY":0.00013845,"INCLINATION":53.1585,"RA_OF_ASC_NODE":332.0662,"ARG_OF_PERICENTER":84.972,"MEAN_ANOMALY":275.1439,"EPHEMERIS_TYPE":0,"CLASSIFICATION_TYPE":"U","NORAD_CAT_ID":65746,"ELEMENT_SET_NO":999,"REV_AT_EPOCH":2656,"BSTAR":0.0012704369,"MEAN_MOTION_DOT":0.00037443,"MEAN_MOTION_DDOT":0}]
